ONEWEB-0018             
1 45434U 20020L   25139.60287209 -.00000486  00000+0 -14077-2 0  9998
2 45434  87.8824  99.5127 0001973  85.0382 275.0971 13.11417071251047
ONEWEB-0083             
1 45435U 20020M   25139.82159344 -.00000180  00000+0 -54477-3 0  9991
2 45435  87.8822  99.4535 0002084  84.3172 275.8193 13.11413925251128
ONEWEB-0095             
1 45436U 20020N   25140.11844848  .00000395  00000+0  10799-2 0  9990
2 45436  87.8820  99.4210 0002802  81.9688 278.1758 13.11415261251162
ONEWEB-0092             
1 45437U 20020P   25139.86144775  .00000289  00000+0  77926-3 0  9991
2 45437  87.8823  99.4597 0002291  80.8916 279.2471 13.11419403251232
ONEWEB-0085             
1 45438U 20020Q   25140.11991904  .00000231  00000+0  61648-3 0  9997
2 45438  87.8824  99.4195 0001977  81.8006 278.3346 13.11416380251163
ONEWEB-0096             
1 45439U 20020R   25139.82326749 -.00000222  00000+0 -66107-3 0  9990
2 45439  87.8822  99.4447 0001883  80.8378 279.2963 13.11416819251116
ONEWEB-0037             
1 45440U 20020S   25139.42233406  .00000458  00000+0  12560-2 0  9997
2 45440  87.8815  99.4882 0002137  82.0081 278.1289 13.11418243251089
ONEWEB-0042             
1 45441U 20020T   25139.81297861  .00000212  00000+0  56222-3 0  9998
2 45441  87.8820  99.4573 0002004  79.7544 280.3810 13.11414743251113
